{"fetched_at":"2026-07-08T17:59:26.812Z","source":"https://celestrak.org/NORAD/elements/gp.php?GROUP=planet&FORMAT=JSON","constellation":"pelican","records":[{"OBJECT_NAME":"PELICAN-1","OBJECT_ID":"2023-174AS","EPOCH":"2026-07-07T05:27:12.727296","CLASSIFICATION_TYPE":"U","MEAN_MOTION":15.72538596,"ECCENTRICITY":0.00047499,"INCLINATION":97.3953,"RA_OF_ASC_NODE":289.8222,"ARG_OF_PERICENTER":148.5978,"MEAN_ANOMALY":211.557,"EPHEMERIS_TYPE":0,"NORAD_CAT_ID":58296,"ELEMENT_SET_NO":999,"REV_AT_EPOCH":14931,"BSTAR":0.000054763225,"MEAN_MOTION_DOT":0.00007175,"MEAN_MOTION_DDOT":0},{"OBJECT_NAME":"PELICAN-2","OBJECT_ID":"2025-009Y","EPOCH":"2026-07-08T05:15:29.788128","CLASSIFICATION_TYPE":"U","MEAN_MOTION":15.40633687,"ECCENTRICITY":0.0002385,"INCLINATION":97.2226,"RA_OF_ASC_NODE":279.8658,"ARG_OF_PERICENTER":137.9776,"MEAN_ANOMALY":222.1654,"EPHEMERIS_TYPE":0,"NORAD_CAT_ID":62631,"ELEMENT_SET_NO":999,"REV_AT_EPOCH":8279,"BSTAR":0.0000022788,"MEAN_MOTION_DOT":1.2e-7,"MEAN_MOTION_DDOT":0},{"OBJECT_NAME":"PELICAN-3","OBJECT_ID":"2025-188A","EPOCH":"2026-07-08T11:28:33.682368","CLASSIFICATION_TYPE":"U","MEAN_MOTION":15.40966649,"ECCENTRICITY":0.0001707,"INCLINATION":97.1979,"RA_OF_ASC_NODE":265.3105,"ARG_OF_PERICENTER":106.5013,"MEAN_ANOMALY":253.6422,"EPHEMERIS_TYPE":0,"NORAD_CAT_ID":65315,"ELEMENT_SET_NO":999,"REV_AT_EPOCH":4859,"BSTAR":0.00012603,"MEAN_MOTION_DOT":0.00005107,"MEAN_MOTION_DDOT":0},{"OBJECT_NAME":"PELICAN-4","OBJECT_ID":"2025-188B","EPOCH":"2026-07-07T17:11:28.135104","CLASSIFICATION_TYPE":"U","MEAN_MOTION":15.40926275,"ECCENTRICITY":0.0000857,"INCLINATION":97.1993,"RA_OF_ASC_NODE":264.7148,"ARG_OF_PERICENTER":102.756,"MEAN_ANOMALY":257.3783,"EPHEMERIS_TYPE":0,"NORAD_CAT_ID":65316,"ELEMENT_SET_NO":999,"REV_AT_EPOCH":4847,"BSTAR":0.00013977,"MEAN_MOTION_DOT":0.00005666,"MEAN_MOTION_DDOT":0},{"OBJECT_NAME":"PELICAN-5","OBJECT_ID":"2025-276B","EPOCH":"2026-07-07T17:30:01.359360","CLASSIFICATION_TYPE":"U","MEAN_MOTION":15.31671258,"ECCENTRICITY":0.0002493,"INCLINATION":97.4126,"RA_OF_ASC_NODE":263.6908,"ARG_OF_PERICENTER":347.5288,"MEAN_ANOMALY":12.5891,"EPHEMERIS_TYPE":0,"NORAD_CAT_ID":66667,"ELEMENT_SET_NO":999,"REV_AT_EPOCH":3366,"BSTAR":0.00012759,"MEAN_MOTION_DOT":0.00003823,"MEAN_MOTION_DDOT":0},{"OBJECT_NAME":"PELICAN-6","OBJECT_ID":"2025-276AP","EPOCH":"2026-07-07T17:23:29.105088","CLASSIFICATION_TYPE":"U","MEAN_MOTION":15.31059041,"ECCENTRICITY":0.0002485,"INCLINATION":97.3773,"RA_OF_ASC_NODE":263.7458,"ARG_OF_PERICENTER":54.3219,"MEAN_ANOMALY":305.8253,"EPHEMERIS_TYPE":0,"NORAD_CAT_ID":66703,"ELEMENT_SET_NO":999,"REV_AT_EPOCH":3367,"BSTAR":0.000095081,"MEAN_MOTION_DOT":0.00002776,"MEAN_MOTION_DDOT":0},{"OBJECT_NAME":"PELICAN-7","OBJECT_ID":"2026-100AP","EPOCH":"2026-07-08T04:00:13.961664","CLASSIFICATION_TYPE":"U","MEAN_MOTION":15.23425141,"ECCENTRICITY":0.000403,"INCLINATION":97.3882,"RA_OF_ASC_NODE":86.7213,"ARG_OF_PERICENTER":89.0516,"MEAN_ANOMALY":271.1182,"EPHEMERIS_TYPE":0,"NORAD_CAT_ID":69017,"ELEMENT_SET_NO":999,"REV_AT_EPOCH":1000,"BSTAR":0.000052995,"MEAN_MOTION_DOT":0.00001192,"MEAN_MOTION_DDOT":0},{"OBJECT_NAME":"PELICAN-9","OBJECT_ID":"2026-100AR","EPOCH":"2026-07-08T11:10:52.254048","CLASSIFICATION_TYPE":"U","MEAN_MOTION":15.21667123,"ECCENTRICITY":0.0002618,"INCLINATION":97.3812,"RA_OF_ASC_NODE":86.8696,"ARG_OF_PERICENTER":3.6085,"MEAN_ANOMALY":356.517,"EPHEMERIS_TYPE":0,"NORAD_CAT_ID":69019,"ELEMENT_SET_NO":999,"REV_AT_EPOCH":1004,"BSTAR":0.000068685,"MEAN_MOTION_DOT":0.00001484,"MEAN_MOTION_DDOT":0}]}
