PELICAN-1               
1 58296U 23174AS  26188.22723064  .00007175  00000+0  54763-4 0  9996
2 58296  97.3953 289.8222 0004749 148.5978 211.5570 15.72538596149317
PELICAN-2               
1 62631U 25009Y   26189.21909477  .00000012  00000+0  22788-5 0  9993
2 62631  97.2226 279.8658 0002385 137.9776 222.1654 15.40633687 82792
PELICAN-3               
1 65315U 25188A   26189.47816762  .00005107  00000+0  12603-3 0  9998
2 65315  97.1979 265.3105 0001707 106.5013 253.6422 15.40966649 48597
PELICAN-4               
1 65316U 25188B   26188.71629786  .00005666  00000+0  13977-3 0  9998
2 65316  97.1993 264.7148 0000857 102.7560 257.3783 15.40926275 48473
PELICAN-5               
1 66667U 25276B   26188.72918240  .00003823  00000+0  12759-3 0  9993
2 66667  97.4126 263.6908 0002493 347.5288  12.5891 15.31671258 33664
PELICAN-6               
1 66703U 25276AP  26188.72464242  .00002776  00000+0  95081-4 0  9998
2 66703  97.3773 263.7458 0002485  54.3219 305.8253 15.31059041 33672
PELICAN-7               
1 69017U 26100AP  26189.16682826  .00001192  00000+0  52995-4 0  9993
2 69017  97.3882  86.7213 0004030  89.0516 271.1182 15.23425141 10006
PELICAN-9               
1 69019U 26100AR  26189.46588257  .00001484  00000+0  68685-4 0  9998
2 69019  97.3812  86.8696 0002618   3.6085 356.5170 15.21667123 10045
